{"type":"FeatureCollection","features":[{"type":"Feature","properties":{"regionId":"kirkuk","iso":"IQ-TS","neName":"At-Ta'mim"},"geometry":{"type":"Polygon","coordinates":[[[44.6273,35.8857],[44.6825,35.787],[44.7079,35.7644],[44.7307,35.739],[44.7771,35.7054],[44.7854,35.6856],[44.7863,35.6689],[44.7694,35.6441],[44.7654,35.6335],[44.7632,35.608],[44.7592,35.5963],[44.7561,35.5604],[44.7524,35.5316],[44.7549,35.5218],[44.7617,35.5118],[44.783,35.4922],[44.8023,35.4706],[44.8034,35.4592],[44.7982,35.4452],[44.788,35.4284],[44.7515,35.388],[44.744,35.3684],[44.7469,35.3536],[44.7531,35.3367],[44.757,35.3218],[44.7528,35.3063],[44.7419,35.2852],[44.7391,35.2717],[44.7363,35.2656],[44.7328,35.2611],[44.7254,35.2593],[44.7162,35.2551],[44.7041,35.2482],[44.6938,35.2355],[44.6899,35.2265],[44.6893,35.2179],[44.6908,35.2105],[44.6977,35.1967],[44.6949,35.1883],[44.6843,35.1799],[44.6064,35.1598],[44.5621,35.1291],[44.5495,35.1287],[44.5435,35.1264],[44.5361,35.1221],[44.5267,35.1125],[44.5185,35.1018],[44.5134,35.084],[44.5144,35.0699],[44.5345,35.0309],[44.5336,35.0161],[44.524,35.0036],[44.4966,34.9868],[44.4812,34.9806],[44.4689,34.9741],[44.4615,34.968],[44.4395,34.9418],[44.4181,34.9242],[44.4026,34.9045],[44.4014,34.8963],[44.4005,34.8939],[44.4002,34.8921],[44.4005,34.8896],[44.4004,34.8863],[44.3971,34.8814],[44.3931,34.8738],[44.3927,34.8712],[44.3922,34.8695],[44.3931,34.8659],[44.3924,34.8626],[44.3877,34.8565],[44.3863,34.854],[44.3862,34.8514],[44.3846,34.8482],[44.3811,34.8445],[44.3695,34.8392],[44.3538,34.8209],[44.3504,34.8109],[44.3469,34.8053],[44.3413,34.7994],[44.3287,34.7901],[44.3256,34.7862],[44.3245,34.7824],[44.325,34.7727],[44.3241,34.7673],[44.3207,34.7564],[44.3217,34.7522],[44.3254,34.7457],[44.3256,34.7434],[44.3238,34.739],[44.3241,34.7366],[44.326,34.7347],[44.3296,34.7335],[44.3401,34.7324],[44.3405,34.73],[44.3361,34.7247],[44.3135,34.7025],[44.2984,34.7022],[44.2884,34.7045],[44.2123,34.7528],[44.1288,34.822],[44.0681,34.8525],[43.9833,34.8837],[43.9131,34.9055],[43.8478,34.9377],[43.6481,35.0361],[43.5708,35.0654],[43.5478,35.0781],[43.5383,35.09],[43.5201,35.1007],[43.4939,35.1107],[43.4808,35.1265],[43.4151,35.1849],[43.4072,35.1897],[43.3971,35.201],[43.3884,35.2135],[43.3847,35.2224],[43.3889,35.2333],[43.3987,35.2383],[43.4102,35.2414],[43.4188,35.2463],[43.4225,35.2654],[43.4017,35.2734],[43.3505,35.2804],[43.3568,35.287],[43.3599,35.2931],[43.3635,35.3077],[43.3626,35.3119],[43.359,35.3151],[43.357,35.319],[43.3601,35.3251],[43.3636,35.3274],[43.3671,35.3284],[43.3699,35.3295],[43.3709,35.3323],[43.3649,35.345],[43.3507,35.353],[43.3226,35.3624],[43.3113,35.3704],[43.2859,35.3933],[43.281,35.4009],[43.2788,35.4034],[43.2742,35.4062],[43.2695,35.4115],[43.2674,35.421],[43.2689,35.431],[43.2714,35.4369],[43.2719,35.4426],[43.2674,35.4518],[43.2739,35.4667],[43.2891,35.4624],[43.2931,35.4605],[43.296,35.4566],[43.2966,35.4533],[43.2979,35.4505],[43.3018,35.4451],[43.3027,35.4407],[43.3028,35.436],[43.3084,35.4288],[43.3145,35.4268],[43.3234,35.4275],[43.3399,35.45],[43.3582,35.4582],[43.4033,35.4348],[43.4129,35.4311],[43.4339,35.4263],[43.4445,35.426],[43.4546,35.4276],[43.4745,35.4422],[43.4899,35.4461],[43.5327,35.4477],[43.5522,35.4503],[43.568,35.4576],[43.5767,35.4695],[43.5884,35.4985],[43.5981,35.5093],[43.6116,35.5143],[43.634,35.5139],[43.6673,35.5162],[43.6998,35.5322],[43.7211,35.5337],[43.7319,35.5374],[43.7419,35.5481],[43.7521,35.578],[43.7577,35.6028],[43.7645,35.6145],[43.7797,35.6298],[43.7926,35.6396],[43.8011,35.6487],[43.8017,35.6599],[43.7977,35.669],[43.7915,35.6781],[43.7695,35.6983],[43.763,35.7029],[43.7623,35.7093],[43.7685,35.7179],[43.8297,35.76],[43.9018,35.8237],[43.9119,35.8458],[43.9273,35.8481],[43.9499,35.8413],[44.0554,35.7799],[44.0928,35.781],[44.1141,35.7843],[44.1234,35.789],[44.1322,35.8038],[44.1468,35.8356],[44.1698,35.8429],[44.1866,35.8456],[44.2415,35.8369],[44.2634,35.8335],[44.2823,35.8256],[44.2881,35.8246],[44.2962,35.8251],[44.3061,35.8271],[44.3204,35.8335],[44.3262,35.8377],[44.3311,35.8439],[44.3349,35.8441],[44.3472,35.839],[44.3531,35.8376],[44.3689,35.8355],[44.3733,35.8338],[44.3764,35.8331],[44.3794,35.8336],[44.3846,35.8422],[44.388,35.8443],[44.4067,35.8509],[44.4123,35.8537],[44.4166,35.8572],[44.4219,35.8602],[44.4294,35.8609],[44.4419,35.8592],[44.4505,35.8592],[44.4719,35.8694],[44.494,35.8638],[44.4966,35.861],[44.4995,35.8597],[44.5041,35.8602],[44.5128,35.8643],[44.5188,35.8656],[44.5261,35.8635],[44.5302,35.8599],[44.5366,35.8522],[44.5405,35.8503],[44.5441,35.8509],[44.5459,35.8555],[44.5453,35.8589],[44.5441,35.8621],[44.5432,35.8655],[44.5438,35.8687],[44.5476,35.8709],[44.5515,35.8717],[44.5621,35.8661],[44.5661,35.8655],[44.5711,35.8699],[44.5751,35.8744],[44.581,35.8795],[44.5894,35.8851],[44.593,35.89],[44.5967,35.8976],[44.5996,35.9009],[44.6042,35.9035],[44.615,35.9078],[44.6183,35.9073],[44.6214,35.9038],[44.6214,35.8942],[44.6273,35.8857]]]}},{"type":"Feature","properties":{"regionId":"nineveh","iso":"IQ-NI","neName":"Ninawa"},"geometry":{"type":"Polygon","coordinates":[[[43.8282,37.0118],[43.8917,36.9842],[43.9147,36.9801],[43.9205,36.9812],[43.926,36.98],[43.9313,36.9767],[43.9535,36.9593],[43.9738,36.9493],[43.9877,36.9404],[44.0005,36.935],[44.0065,36.9312],[44.0117,36.925],[44.013,36.9201],[44.0157,36.9152],[44.0204,36.9089],[44.0198,36.906],[44.0173,36.9045],[44.0133,36.9038],[44.0106,36.9024],[44.0105,36.9005],[44.0127,36.8986],[44.0291,36.8991],[44.0328,36.8999],[44.0371,36.8989],[44.0412,36.8961],[44.0476,36.8881],[44.048,36.8835],[44.0471,36.8793],[44.0456,36.8766],[44.0465,36.8738],[44.0548,36.8633],[44.0585,36.8613],[44.0662,36.8621],[44.0706,36.8631],[44.075,36.8632],[44.0842,36.8616],[44.1141,36.8593],[44.1175,36.8581],[44.1223,36.8555],[44.1257,36.8503],[44.1304,36.8461],[44.1375,36.8421],[44.2318,36.8088],[44.2486,36.7982],[44.257,36.7941],[44.2624,36.7899],[44.2643,36.7859],[44.2652,36.7774],[44.2662,36.7728],[44.2766,36.7641],[44.2797,36.7567],[44.2857,36.7455],[44.2884,36.7445],[44.2907,36.7452],[44.2931,36.7471],[44.2955,36.748],[44.2978,36.7478],[44.3,36.7461],[44.3018,36.7431],[44.3027,36.7394],[44.3021,36.7346],[44.2971,36.7258],[44.2613,36.6875],[44.2331,36.6672],[44.2173,36.6473],[44.2002,36.6426],[44.1926,36.6383],[44.1653,36.6184],[44.148,36.6098],[44.1353,36.6008],[44.125,36.5993],[44.1211,36.6008],[44.1198,36.6037],[44.1201,36.6065],[44.1185,36.6084],[44.1149,36.6102],[44.1093,36.6115],[44.1042,36.6117],[44.0988,36.6104],[44.0888,36.6066],[44.0852,36.6063],[44.0814,36.6067],[44.078,36.6056],[44.0753,36.6031],[44.0737,36.5977],[44.0734,36.5938],[44.0719,36.5904],[44.0688,36.5891],[44.0621,36.5908],[44.059,36.5937],[44.0581,36.5973],[44.059,36.6012],[44.061,36.6049],[44.0623,36.6083],[44.0616,36.6107],[44.0595,36.6118],[44.055,36.6119],[44.0504,36.6113],[44.0449,36.6098],[44.0402,36.6093],[44.0354,36.6101],[44.0313,36.612],[44.0282,36.6146],[44.0269,36.6174],[44.0258,36.6208],[44.0239,36.6236],[44.0219,36.6239],[44.0196,36.6221],[44.0193,36.617],[44.0205,36.6134],[44.0241,36.6087],[44.023,36.6063],[44.0182,36.6059],[44.0151,36.6068],[44.0124,36.6085],[44.0071,36.6063],[43.9987,36.6008],[43.9734,36.5774],[43.9693,36.5688],[43.9665,36.5648],[43.9626,36.5601],[43.9527,36.5536],[43.9458,36.5463],[43.9317,36.5377],[43.9255,36.5361],[43.9205,36.5372],[43.9178,36.5407],[43.9147,36.5435],[43.9115,36.5457],[43.9085,36.5452],[43.9059,36.5425],[43.9046,36.5353],[43.9056,36.5231],[43.9035,36.5169],[43.8989,36.5113],[43.8899,36.5086],[43.8836,36.5084],[43.8583,36.511],[43.8542,36.5089],[43.8518,36.5047],[43.8524,36.495],[43.8545,36.4906],[43.8568,36.4873],[43.8582,36.4837],[43.8586,36.48],[43.8586,36.4757],[43.8574,36.4703],[43.854,36.4655],[43.8446,36.4597],[43.8366,36.4561],[43.8294,36.454],[43.8222,36.4541],[43.811,36.4557],[43.8075,36.4554],[43.8047,36.4529],[43.8041,36.4491],[43.8084,36.44],[43.81,36.4309],[43.811,36.4161],[43.8038,36.3962],[43.7867,36.3728],[43.7448,36.3321],[43.7286,36.32],[43.7101,36.3104],[43.7023,36.3074],[43.6881,36.2938],[43.6655,36.2857],[43.6576,36.2799],[43.6497,36.2711],[43.638,36.2548],[43.629,36.245],[43.5975,36.2218],[43.5922,36.2153],[43.5868,36.2037],[43.5754,36.1841],[43.5559,36.1724],[43.5476,36.1715],[43.544,36.1684],[43.539,36.1594],[43.5367,36.1523],[43.534,36.1458],[43.5126,36.1135],[43.5105,36.1051],[43.5101,36.0984],[43.5117,36.0787],[43.5105,36.0739],[43.5076,36.0687],[43.4934,36.0516],[43.4825,36.0433],[43.3529,35.9991],[43.3448,35.9888],[43.351,35.9637],[43.3616,35.9548],[43.378,35.9531],[43.3909,35.9529],[43.3943,35.9458],[43.3944,35.9272],[43.3854,35.8579],[43.3745,35.8378],[43.3672,35.8319],[43.3593,35.8306],[43.3522,35.8306],[43.3466,35.8278],[43.3414,35.8213],[43.3198,35.7809],[43.3158,35.7691],[43.3167,35.7606],[43.3179,35.7549],[43.3343,35.7235],[43.3246,35.7161],[43.3226,35.7087],[43.3187,35.6942],[43.3087,35.6898],[43.2954,35.6889],[43.281,35.6851],[43.2734,35.6775],[43.2584,35.6556],[43.2443,35.6467],[43.2247,35.642],[43.2056,35.631],[43.14,35.6087],[43.0192,35.5411],[43.002,35.54],[42.9939,35.5379],[42.984,35.5329],[42.9607,35.5168],[42.9483,35.5101],[42.9199,35.4996],[42.9165,35.4994],[42.914,35.4996],[42.9122,35.4993],[42.9106,35.4983],[42.9084,35.4977],[42.9053,35.4981],[42.9017,35.498],[42.8979,35.4983],[42.8951,35.4971],[42.892,35.4942],[42.8889,35.4902],[42.8855,35.4844],[42.8821,35.4823],[42.8802,35.4806],[42.8797,35.4792],[42.8886,35.4677],[42.8985,35.4484],[42.9007,35.4415],[42.8989,35.4354],[42.8935,35.4267],[42.8893,35.4214],[42.8877,35.4187],[42.8849,35.4054],[42.8855,35.3987],[42.8876,35.3911],[42.8926,35.3844],[42.8929,35.3713],[42.8952,35.365],[42.9225,35.336],[42.9303,35.3299],[42.9459,35.3199],[42.9505,35.3148],[42.9554,35.3077],[42.9561,35.3003],[42.9573,35.2925],[42.9689,35.2667],[42.9711,35.2644],[42.9735,35.2635],[42.9757,35.2639],[42.9776,35.2648],[42.9793,35.2645],[42.9799,35.2622],[42.9794,35.257],[42.9754,35.2494],[42.9734,35.2431],[42.974,35.2364],[42.9706,35.2198],[42.9703,35.2126],[42.9714,35.2101],[42.9725,35.2085],[42.9742,35.2083],[42.9763,35.2087],[42.9788,35.2086],[42.984,35.2073],[42.9871,35.1999],[42.9951,35.1882],[42.9963,35.1824],[42.9976,35.1804],[43.0004,35.1793],[43.0034,35.1788],[43.0046,35.1778],[43.0046,35.1742],[43.0059,35.1726],[43.0078,35.172],[43.0112,35.1722],[43.0118,35.1706],[43.0115,35.1683],[43.0094,35.1658],[43.0096,35.1642],[43.0116,35.1632],[43.0152,35.1628],[43.0193,35.1628],[43.0224,35.1622],[43.0249,35.162],[43.0286,35.1622],[43.0301,35.161],[43.0325,35.1517],[43.0339,35.149],[43.0344,35.1465],[43.0366,35.1404],[43.0375,35.1365],[43.036,35.1318],[43.0311,35.1209],[43.0313,35.1186],[43.0351,35.1137],[43.0373,35.109],[43.0356,35.1026],[43.0249,35.0969],[42.9877,35.0928],[42.6312,35.0909],[42.5164,35.0701],[42.4913,34.9727],[42.2733,34.9484],[42.243,34.9592],[42.208,34.9728],[42.1899,34.9759],[42.0494,34.9608],[41.9842,34.9643],[41.8522,35.0068],[41.5784,35.0998],[41.5112,35.1087],[41.3422,35.1485],[41.2137,35.1584],[41.1923,35.1589],[41.1915,35.1821],[41.2013,35.243],[41.2431,35.3665],[41.2519,35.4641],[41.2611,35.4942],[41.2612,35.4942],[41.2613,35.4942],[41.2613,35.4943],[41.3085,35.5522],[41.3422,35.5937],[41.358,35.6239],[41.3635,35.6552],[41.3593,35.7928],[41.3545,35.8256],[41.3437,35.8577],[41.2663,35.9942],[41.2663,35.9943],[41.2662,35.9943],[41.2406,36.043],[41.2367,36.0603],[41.2366,36.077],[41.2688,36.328],[41.277,36.3548],[41.3653,36.4939],[41.3653,36.494],[41.3654,36.4941],[41.3654,36.4942],[41.3854,36.5164],[41.4149,36.5274],[41.4798,36.5361],[41.7899,36.5893],[41.8173,36.5997],[41.8438,36.6179],[41.9786,36.7336],[42.1784,36.9053],[42.2816,36.994],[42.2819,36.994],[42.2819,36.994],[42.2819,36.9941],[42.3459,37.0429],[42.3768,37.062],[42.3838,37.0407],[42.3975,37.017],[42.4146,36.9955],[42.4526,36.9655],[42.4706,36.9548],[42.4881,36.9551],[42.5076,36.9731],[42.5079,36.9579],[42.5033,36.9378],[42.504,36.9217],[42.5206,36.9184],[42.5132,36.8965],[42.5155,36.8873],[42.5239,36.8798],[42.5349,36.8632],[42.5087,36.8618],[42.504,36.8513],[42.5149,36.8434],[42.5349,36.8495],[42.566,36.8366],[42.5829,36.8265],[42.5965,36.796],[42.6125,36.7893],[42.6547,36.7887],[42.6595,36.7907],[42.6639,36.7952],[42.6694,36.7997],[42.6783,36.8018],[42.6903,36.7996],[42.6992,36.7943],[42.7296,36.7667],[42.7472,36.754],[42.7566,36.7502],[42.7647,36.7496],[42.7725,36.7476],[42.7813,36.7403],[42.7589,36.7334],[42.7497,36.7274],[42.7472,36.7198],[42.754,36.7115],[42.7644,36.7122],[42.7997,36.7263],[42.808,36.7258],[42.8223,36.7198],[42.8298,36.7146],[42.8348,36.7081],[42.8434,36.6925],[42.8517,36.7047],[42.8612,36.7104],[42.8728,36.7123],[42.8874,36.7124],[42.8995,36.7101],[42.9815,36.7469],[43.1123,36.7613],[43.1525,36.7641],[43.1858,36.778],[43.2009,36.7865],[43.2054,36.8023],[43.2144,36.8201],[43.2232,36.8427],[43.2526,36.8816],[43.2833,36.9115],[43.2906,36.9215],[43.3047,36.9302],[43.3207,36.9346],[43.3587,36.931],[43.374,36.9245],[43.3896,36.9144],[43.4031,36.9029],[43.4332,36.8855],[43.451,36.8723],[43.483,36.8598],[43.628,36.8285],[43.6422,36.8262],[43.6488,36.8265],[43.6516,36.8311],[43.6526,36.8359],[43.6526,36.8416],[43.6543,36.8467],[43.6576,36.8503],[43.6649,36.8535],[43.6741,36.8547],[43.6911,36.8501],[43.6946,36.8483],[43.6983,36.8484],[43.7017,36.8512],[43.7061,36.8625],[43.7072,36.8687],[43.7075,36.8739],[43.7067,36.8775],[43.7058,36.8804],[43.7055,36.8854],[43.7049,36.8878],[43.7048,36.8903],[43.7048,36.8934],[43.7042,36.8969],[43.7023,36.9028],[43.703,36.9051],[43.7085,36.9069],[43.713,36.9093],[43.7178,36.9135],[43.7261,36.9273],[43.7279,36.9322],[43.7282,36.9368],[43.7274,36.9418],[43.7261,36.9468],[43.7237,36.9513],[43.7205,36.9544],[43.715,36.9564],[43.7088,36.9574],[43.6918,36.9617],[43.6835,36.9654],[43.6757,36.9666],[43.6618,36.9671],[43.6558,36.9684],[43.6507,36.9705],[43.6405,36.9764],[43.6379,36.9796],[43.6366,36.9825],[43.6361,36.9853],[43.6333,36.99],[43.6329,36.993],[43.6327,36.9965],[43.6333,37.0003],[43.6358,37.0077],[43.6394,37.0157],[43.6408,37.024],[43.6407,37.0275],[43.6416,37.0303],[43.6464,37.0385],[43.6494,37.042],[43.6537,37.0457],[43.6573,37.0478],[43.6605,37.0486],[43.6648,37.0484],[43.6695,37.0472],[43.6872,37.0394],[43.6987,37.0368],[43.7687,37.0268],[43.7966,37.0179],[43.8282,37.0118]]]}},{"type":"Feature","properties":{"regionId":"salah-ad-din","iso":"IQ-SD","neName":"Sala ad-Din"},"geometry":{"type":"Polygon","coordinates":[[[43.3582,35.4582],[43.3399,35.45],[43.3234,35.4275],[43.3145,35.4268],[43.3084,35.4288],[43.3028,35.436],[43.3027,35.4407],[43.3018,35.4451],[43.2979,35.4505],[43.2966,35.4533],[43.296,35.4566],[43.2931,35.4605],[43.2891,35.4624],[43.2739,35.4667],[43.2674,35.4518],[43.2719,35.4426],[43.2714,35.4369],[43.2689,35.431],[43.2674,35.421],[43.2695,35.4115],[43.2742,35.4062],[43.2788,35.4034],[43.281,35.4009],[43.2859,35.3933],[43.3113,35.3704],[43.3226,35.3624],[43.3507,35.353],[43.3649,35.345],[43.3709,35.3323],[43.3699,35.3295],[43.3671,35.3284],[43.3636,35.3274],[43.3601,35.3251],[43.357,35.319],[43.359,35.3151],[43.3626,35.3119],[43.3635,35.3077],[43.3599,35.2931],[43.3568,35.287],[43.3505,35.2804],[43.4017,35.2734],[43.4225,35.2654],[43.4188,35.2463],[43.4102,35.2414],[43.3987,35.2383],[43.3889,35.2333],[43.3847,35.2224],[43.3884,35.2135],[43.3971,35.201],[43.4072,35.1897],[43.4151,35.1849],[43.4808,35.1265],[43.4939,35.1107],[43.5201,35.1007],[43.5383,35.09],[43.5478,35.0781],[43.5708,35.0654],[43.6481,35.0361],[43.8478,34.9377],[43.9131,34.9055],[43.9833,34.8837],[44.0681,34.8525],[44.1288,34.822],[44.2123,34.7528],[44.2884,34.7045],[44.2984,34.7022],[44.3135,34.7025],[44.3361,34.7247],[44.3405,34.73],[44.3401,34.7324],[44.3296,34.7335],[44.326,34.7347],[44.3241,34.7366],[44.3238,34.739],[44.3256,34.7434],[44.3254,34.7457],[44.3217,34.7522],[44.3207,34.7564],[44.3241,34.7673],[44.325,34.7727],[44.3245,34.7824],[44.3256,34.7862],[44.3287,34.7901],[44.3413,34.7994],[44.3469,34.8053],[44.3504,34.8109],[44.3538,34.8209],[44.3695,34.8392],[44.3811,34.8445],[44.3846,34.8482],[44.3862,34.8514],[44.3863,34.854],[44.3877,34.8565],[44.3924,34.8626],[44.3931,34.8659],[44.3922,34.8695],[44.3927,34.8712],[44.3931,34.8738],[44.3971,34.8814],[44.4004,34.8863],[44.4005,34.8896],[44.4002,34.8921],[44.4005,34.8939],[44.4014,34.8963],[44.4026,34.9045],[44.4181,34.9242],[44.4395,34.9418],[44.4615,34.968],[44.4689,34.9741],[44.4812,34.9806],[44.4966,34.9868],[44.524,35.0036],[44.5336,35.0161],[44.5345,35.0309],[44.5144,35.0699],[44.5134,35.084],[44.5185,35.1018],[44.5267,35.1125],[44.5361,35.1221],[44.5435,35.1264],[44.5495,35.1287],[44.5621,35.1291],[44.6629,35.042],[44.6794,35.0357],[44.7019,35.0306],[44.7191,35.0357],[44.8285,35.0318],[44.8659,35.0263],[44.9519,34.9767],[44.964,34.9648],[44.9665,34.9604],[44.9674,34.9566],[44.9668,34.9521],[44.9635,34.9386],[44.966,34.8675],[44.9186,34.8317],[44.8858,34.8177],[44.8597,34.8094],[44.848,34.8017],[44.8415,34.7939],[44.8409,34.7873],[44.842,34.7808],[44.8428,34.7725],[44.8386,34.7615],[44.8252,34.743],[44.8059,34.7266],[44.7916,34.717],[44.7793,34.7127],[44.7511,34.7058],[44.7306,34.6962],[44.721,34.689],[44.7163,34.6825],[44.7163,34.6766],[44.7183,34.6705],[44.7226,34.6641],[44.7273,34.6582],[44.7306,34.6464],[44.7291,34.6318],[44.7134,34.6042],[44.7008,34.59],[44.6865,34.5786],[44.6701,34.5693],[44.653,34.5572],[44.642,34.5464],[44.6354,34.5364],[44.6304,34.5244],[44.6274,34.524],[44.6221,34.5267],[44.5856,34.554],[44.5748,34.5599],[44.566,34.5633],[44.5506,34.5663],[44.5307,34.5732],[44.5219,34.5773],[44.5177,34.5755],[44.506,34.563],[44.5039,34.5575],[44.5029,34.5536],[44.5023,34.5443],[44.5175,34.5119],[44.5171,34.5063],[44.5146,34.4987],[44.5026,34.4898],[44.5014,34.4871],[44.5026,34.4861],[44.5053,34.4861],[44.509,34.4848],[44.5128,34.4816],[44.5172,34.4737],[44.5162,34.4699],[44.5128,34.4673],[44.5032,34.4648],[44.4992,34.4645],[44.4946,34.4637],[44.4906,34.461],[44.486,34.4542],[44.4853,34.4505],[44.486,34.4489],[44.4879,34.4498],[44.4903,34.4514],[44.4928,34.4521],[44.4961,34.4504],[44.4956,34.4481],[44.4934,34.4453],[44.4888,34.4407],[44.4888,34.4378],[44.4909,34.436],[44.4947,34.4354],[44.498,34.436],[44.5036,34.4389],[44.5067,34.4392],[44.5097,34.4374],[44.509,34.4347],[44.5072,34.4313],[44.5038,34.422],[44.5014,34.4187],[44.4947,34.4129],[44.4958,34.4092],[44.4982,34.4043],[44.5016,34.3944],[44.5011,34.3864],[44.4944,34.3677],[44.4844,34.3499],[44.4767,34.3398],[44.4767,34.3354],[44.4795,34.3297],[44.4851,34.323],[44.4943,34.3143],[44.5019,34.3092],[44.509,34.3059],[44.5206,34.2939],[44.507,34.2865],[44.5097,34.2666],[44.5088,34.2627],[44.5053,34.2602],[44.5004,34.2587],[44.4928,34.2546],[44.491,34.249],[44.4912,34.2308],[44.4891,34.2266],[44.4863,34.2257],[44.4832,34.2277],[44.4776,34.2329],[44.4745,34.2334],[44.4704,34.2315],[44.4665,34.2289],[44.4631,34.2272],[44.4595,34.2267],[44.4481,34.2263],[44.4392,34.2236],[44.4353,34.2214],[44.4145,34.1959],[44.4104,34.1886],[44.408,34.1805],[44.4058,34.1775],[44.4027,34.176],[44.3995,34.1762],[44.3976,34.1773],[44.3973,34.1788],[44.3998,34.1835],[44.3995,34.1864],[44.3976,34.1886],[44.3917,34.1878],[44.3883,34.1842],[44.3843,34.1786],[44.3814,34.1723],[44.3773,34.1692],[44.3729,34.1678],[44.3608,34.1683],[44.3516,34.1666],[44.3481,34.1645],[44.3482,34.162],[44.3504,34.1594],[44.3525,34.1557],[44.3534,34.132],[44.3522,34.1293],[44.35,34.128],[44.3382,34.1277],[44.3299,34.1261],[44.3259,34.1232],[44.324,34.1197],[44.3253,34.1159],[44.3326,34.1052],[44.334,34.1017],[44.3339,34.0976],[44.3315,34.0912],[44.3276,34.088],[44.3062,34.0756],[44.3045,34.0723],[44.3098,34.0654],[44.3111,34.0605],[44.3039,34.044],[44.3012,34.0316],[44.29,34.0183],[44.2894,34.0134],[44.2896,34.0051],[44.2927,34.0026],[44.2975,34.0017],[44.3046,34.0024],[44.3127,34.0043],[44.3401,34.007],[44.3667,34.0037],[44.3728,34.0015],[44.3818,33.9983],[44.4281,33.9635],[44.44,33.951],[44.4478,33.9354],[44.451,33.9163],[44.45,33.8976],[44.4441,33.8801],[44.4099,33.8355],[44.3913,33.7927],[44.3894,33.7836],[44.3893,33.7745],[44.3917,33.7654],[44.3969,33.757],[44.4036,33.7498],[44.4235,33.7331],[44.426,33.729],[44.4258,33.7246],[44.4119,33.706],[44.4079,33.6987],[44.3931,33.6446],[44.4046,33.6216],[44.4015,33.5968],[44.3931,33.5709],[44.3538,33.5416],[44.3363,33.5309],[44.313,33.5128],[44.2981,33.4978],[44.2448,33.4333],[44.1711,33.437],[44.1372,33.4567],[44.1,33.466],[44.1335,33.4879],[44.1235,33.4971],[44.1016,33.5287],[44.0703,33.5942],[44.0519,33.6227],[44.0363,33.637],[44.0015,33.6635],[43.9712,33.6711],[43.8035,33.6676],[43.7128,33.6927],[43.5899,33.7338],[43.4825,33.7488],[43.4296,33.7653],[43.2922,33.8653],[43.1319,33.9995],[43.0632,34.0756],[43.0108,34.1814],[43.0009,34.2342],[42.9857,34.2876],[42.9602,34.3182],[42.9523,34.3481],[42.9477,34.4103],[42.9288,34.4959],[42.8092,34.4394],[42.7773,34.443],[42.7339,34.4635],[42.5398,34.5953],[42.4999,34.7401],[42.4984,34.9587],[42.4913,34.9727],[42.5164,35.0701],[42.6312,35.0909],[42.9877,35.0928],[43.0249,35.0969],[43.0356,35.1026],[43.0373,35.109],[43.0351,35.1137],[43.0313,35.1186],[43.0311,35.1209],[43.036,35.1318],[43.0375,35.1365],[43.0366,35.1404],[43.0344,35.1465],[43.0339,35.149],[43.0325,35.1517],[43.0301,35.161],[43.0286,35.1622],[43.0249,35.162],[43.0224,35.1622],[43.0193,35.1628],[43.0152,35.1628],[43.0116,35.1632],[43.0096,35.1642],[43.0094,35.1658],[43.0115,35.1683],[43.0118,35.1706],[43.0112,35.1722],[43.0078,35.172],[43.0059,35.1726],[43.0046,35.1742],[43.0046,35.1778],[43.0034,35.1788],[43.0004,35.1793],[42.9976,35.1804],[42.9963,35.1824],[42.9951,35.1882],[42.9871,35.1999],[42.984,35.2073],[42.9788,35.2086],[42.9763,35.2087],[42.9742,35.2083],[42.9725,35.2085],[42.9714,35.2101],[42.9703,35.2126],[42.9706,35.2198],[42.974,35.2364],[42.9734,35.2431],[42.9754,35.2494],[42.9794,35.257],[42.9799,35.2622],[42.9793,35.2645],[42.9776,35.2648],[42.9757,35.2639],[42.9735,35.2635],[42.9711,35.2644],[42.9689,35.2667],[42.9573,35.2925],[42.9561,35.3003],[42.9554,35.3077],[42.9505,35.3148],[42.9459,35.3199],[42.9303,35.3299],[42.9225,35.336],[42.8952,35.365],[42.8929,35.3713],[42.8926,35.3844],[42.8876,35.3911],[42.8855,35.3987],[42.8849,35.4054],[42.8877,35.4187],[42.8893,35.4214],[42.8935,35.4267],[42.8989,35.4354],[42.9007,35.4415],[42.8985,35.4484],[42.8886,35.4677],[42.8797,35.4792],[42.8802,35.4806],[42.8821,35.4823],[42.8855,35.4844],[42.8889,35.4902],[42.892,35.4942],[42.8951,35.4971],[42.8979,35.4983],[42.9017,35.498],[42.9053,35.4981],[42.9084,35.4977],[42.9106,35.4983],[42.9122,35.4993],[42.914,35.4996],[42.9165,35.4994],[42.9199,35.4996],[42.9483,35.5101],[42.9607,35.5168],[42.984,35.5329],[42.9939,35.5379],[43.002,35.54],[43.0192,35.5411],[43.14,35.6087],[43.2056,35.631],[43.2247,35.642],[43.2443,35.6467],[43.2584,35.6556],[43.2734,35.6775],[43.281,35.6851],[43.2954,35.6889],[43.3087,35.6898],[43.3187,35.6942],[43.3226,35.7087],[43.3246,35.7161],[43.3343,35.7235],[43.3278,35.6961],[43.3257,35.6917],[43.3216,35.6858],[43.3229,35.682],[43.3256,35.6787],[43.3302,35.6745],[43.335,35.6684],[43.3399,35.6589],[43.3439,35.6464],[43.342,35.6385],[43.3392,35.632],[43.3402,35.6281],[43.3429,35.6254],[43.3476,35.6238],[43.3522,35.6232],[43.3576,35.6207],[43.3638,35.6153],[43.3715,35.6034],[43.3751,35.5882],[43.3794,35.5104],[43.3789,35.5014],[43.3776,35.495],[43.3734,35.4816],[43.3724,35.4694],[43.3712,35.464],[43.3687,35.4609],[43.3663,35.4601],[43.3582,35.4582]]]}},{"type":"Feature","properties":{"regionId":"najaf","iso":"IQ-NA","neName":"An-Najaf"},"geometry":{"type":"Polygon","coordinates":[[[44.3737,32.145],[44.4092,32.1739],[44.43,32.1859],[44.4345,32.1857],[44.4428,32.1871],[44.4505,32.1864],[44.4997,32.2163],[44.527,32.204],[44.5494,32.188],[44.5791,32.1735],[44.6299,32.1595],[44.6152,32.1192],[44.6119,32.1152],[44.6076,32.111],[44.6029,32.1109],[44.5967,32.1098],[44.5866,32.1044],[44.584,32.0992],[44.5841,32.0931],[44.5878,32.0864],[44.5925,32.0802],[44.5985,32.0752],[44.6073,32.0692],[44.6133,32.0627],[44.6131,32.0582],[44.6079,32.0551],[44.579,32.0458],[44.5425,32.0251],[44.523,32.0184],[44.5149,32.0083],[44.5066,31.9841],[44.4995,31.9527],[44.533,31.8111],[44.529,31.7786],[44.5284,31.7155],[44.5417,31.6408],[44.5222,31.617],[44.505,31.6256],[44.4776,31.6346],[44.4564,31.6302],[44.4342,31.6087],[44.4293,31.5853],[44.4509,31.5514],[44.516,31.4856],[44.5346,31.4753],[44.7269,31.4075],[44.6513,31.0549],[44.6271,31.0069],[44.5794,30.9343],[44.533,30.898],[44.4941,30.8586],[44.4454,30.7931],[44.4386,30.789],[44.3782,30.7671],[44.3287,30.7361],[44.313,30.7224],[44.272,30.6762],[44.2364,30.6153],[44.0564,30.167],[43.8368,29.8333],[43.824,29.814],[43.7755,29.8482],[43.661,29.929],[43.5464,30.0098],[43.4317,30.0906],[43.3172,30.1713],[43.2291,30.2335],[43.141,30.2957],[43.0529,30.3578],[42.9647,30.42],[42.859,30.4945],[42.8589,30.4946],[42.8588,30.4946],[42.8587,30.4947],[42.7834,30.551],[42.7909,30.5612],[42.8168,30.6149],[42.8818,30.7192],[42.9115,30.7809],[42.9242,30.8159],[42.9365,30.9042],[42.9399,30.914],[42.9475,30.929],[42.9818,30.9796],[43.0381,31.048],[43.0455,31.0618],[43.0521,31.0828],[43.0589,31.1317],[43.0622,31.1442],[43.1016,31.2333],[43.1058,31.2547],[43.105,31.2695],[43.1013,31.2767],[43.0994,31.2852],[43.0994,31.2984],[43.1022,31.3157],[43.1115,31.3399],[43.2177,31.5346],[43.2324,31.5716],[43.238,31.5996],[43.2393,31.6315],[43.2535,31.6535],[43.4092,31.8503],[43.438,31.877],[43.4565,31.889],[43.4727,31.8956],[43.4936,31.8971],[43.5014,31.8987],[43.5311,31.9154],[43.5429,31.9197],[43.6067,31.9282],[43.6228,31.9332],[43.6361,31.9403],[43.6617,31.9578],[43.7547,32.0017],[43.7718,32.0156],[43.7895,32.0338],[43.7948,32.0637],[43.7958,32.0834],[43.6906,32.1685],[44.1567,32.2819],[44.25,32.3066],[44.2761,32.3092],[44.2881,32.3003],[44.2964,32.296],[44.3012,32.3014],[44.3058,32.3125],[44.3074,32.3186],[44.3195,32.3437],[44.3337,32.2958],[44.3405,32.2862],[44.3467,32.2809],[44.3426,32.2638],[44.3185,32.2522],[44.3111,32.2422],[44.3127,32.2313],[44.3206,32.2127],[44.3395,32.187],[44.3461,32.1805],[44.3535,32.1708],[44.3585,32.1622],[44.3737,32.145]]]}},{"type":"Feature","properties":{"regionId":"karbala","iso":"IQ-KA","neName":"Karbala'"},"geometry":{"type":"Polygon","coordinates":[[[44.1296,32.7812],[44.1573,32.7777],[44.1923,32.7697],[44.1975,32.7691],[44.2022,32.7697],[44.2129,32.7747],[44.2182,32.7766],[44.2229,32.7768],[44.229,32.7747],[44.2358,32.7704],[44.2601,32.7496],[44.2641,32.7417],[44.2644,32.7358],[44.265,32.7244],[44.2557,32.7161],[44.2204,32.6076],[44.2227,32.5702],[44.2392,32.5363],[44.2955,32.4665],[44.3025,32.4464],[44.293,32.4265],[44.2881,32.4101],[44.2955,32.3892],[44.3163,32.3545],[44.3195,32.3437],[44.3074,32.3186],[44.3058,32.3125],[44.3012,32.3014],[44.2964,32.296],[44.2881,32.3003],[44.2761,32.3092],[44.25,32.3066],[44.1567,32.2819],[43.6906,32.1685],[43.6423,32.2034],[43.4774,32.3082],[43.2418,32.5101],[43.2177,32.5407],[43.2107,32.571],[43.264,32.5948],[43.3109,32.6098],[43.4333,32.6245],[43.4546,32.627],[43.4656,32.6296],[43.4927,32.6446],[43.6797,32.7841],[43.759,32.8168],[43.8437,32.8257],[43.9582,32.8258],[44.1296,32.7812]]]}},{"type":"Feature","properties":{"regionId":"baghdad","iso":"IQ-BG","neName":"Baghdad"},"geometry":{"type":"Polygon","coordinates":[[[44.4944,33.3908],[44.5258,33.4109],[44.5292,33.4081],[44.5333,33.4036],[44.5348,33.3923],[44.5373,33.3832],[44.5426,33.3692],[44.5433,33.3663],[44.5426,33.3648],[44.542,33.3624],[44.5411,33.3504],[44.536,33.3407],[44.5374,33.311],[44.5385,33.2808],[44.5361,33.2734],[44.533,33.2668],[44.5283,33.2643],[44.5247,33.2645],[44.5243,33.2673],[44.5268,33.2704],[44.5268,33.2794],[44.5199,33.2634],[44.5222,33.2551],[44.5261,33.248],[44.5265,33.2438],[44.5253,33.2399],[44.5191,33.2336],[44.516,33.2311],[44.5064,33.2192],[44.5048,33.176],[44.5048,33.176],[44.3388,33.1831],[44.3132,33.1891],[44.3004,33.1908],[44.2873,33.1892],[44.2756,33.1998],[44.2488,33.2139],[44.2371,33.2236],[44.2272,33.2408],[44.2224,33.2612],[44.2222,33.2822],[44.2263,33.3014],[44.2382,33.3211],[44.2698,33.3495],[44.2793,33.369],[44.2792,33.3741],[44.2778,33.3786],[44.3298,33.3904],[44.343,33.4256],[44.3498,33.4325],[44.3556,33.4316],[44.4272,33.4291],[44.4371,33.4275],[44.4571,33.4184],[44.4571,33.4184],[44.4944,33.3908]]]}},{"type":"Feature","properties":{"regionId":"basra","iso":"IQ-BA","neName":"Al-Basrah"},"geometry":{"type":"Polygon","coordinates":[[[47.6764,31.2365],[47.6729,30.9947],[48.0015,30.9946],[48.0122,30.9891],[48.0154,30.9762],[48.012,30.4946],[48.012,30.4945],[48.0136,30.4639],[48.1194,30.4508],[48.1306,30.4475],[48.1409,30.4419],[48.1577,30.4263],[48.1705,30.4067],[48.1795,30.3849],[48.1877,30.3408],[48.1921,30.3313],[48.2001,30.3239],[48.2112,30.3196],[48.223,30.3181],[48.2351,30.3185],[48.2717,30.3238],[48.2843,30.3233],[48.2964,30.3198],[48.3057,30.3128],[48.326,30.2835],[48.3582,30.2518],[48.397,30.221],[48.4036,30.2125],[48.4087,30.2023],[48.4106,30.1915],[48.408,30.1809],[48.4007,30.1723],[48.3911,30.1648],[48.3833,30.1565],[48.3811,30.1453],[48.3831,30.1384],[48.3956,30.1152],[48.4155,30.0956],[48.4212,30.0853],[48.4239,30.0836],[48.4422,30.0339],[48.4443,30.0209],[48.4531,30.0014],[48.4578,29.9949],[48.4643,29.9891],[48.4782,29.9796],[48.493,29.9718],[48.524,29.9641],[48.531,29.9614],[48.531,29.9613],[48.5308,29.9608],[48.5308,29.9562],[48.5549,29.9565],[48.5593,29.9466],[48.5469,29.9347],[48.5205,29.9289],[48.4119,29.9384],[48.3355,29.9614],[48.2996,29.9845],[48.2647,29.994],[48.2092,30.0245],[48.1658,30.0375],[48.1192,30.045],[48.0763,30.0456],[48.0383,30.0369],[47.969,30.0041],[47.9619,30.0303],[47.9585,30.0606],[47.9517,30.0883],[47.9348,30.1071],[47.9471,30.0745],[47.9485,30.0623],[47.9461,30.0494],[47.9417,30.0373],[47.9409,30.0265],[47.9485,30.0176],[47.948,29.994],[47.7314,30.0886],[47.6742,30.0982],[47.4158,30.0982],[47.3582,30.0921],[47.1971,30.0342],[47.1447,30.0033],[47.1105,29.9609],[47.0254,29.7721],[46.9888,29.7127],[46.9837,29.6983],[46.9799,29.6681],[46.9774,29.658],[46.9578,29.6204],[46.8831,29.5125],[46.8534,29.4446],[46.8386,29.425],[46.7745,29.3635],[46.7119,29.2714],[46.5615,29.1242],[46.5616,29.1249],[46.5669,29.1496],[46.5886,29.3511],[46.5966,29.3772],[46.6083,29.4],[46.6452,29.4559],[46.6495,29.4816],[46.6504,29.6097],[46.6628,29.7108],[46.7446,30.0893],[46.7448,30.1179],[46.7417,30.1435],[46.7357,30.1636],[46.727,30.1824],[46.6287,30.3064],[46.6159,30.3316],[46.6074,30.3599],[46.5913,30.4523],[46.5747,30.5141],[46.9011,30.5913],[46.9194,30.5907],[47.0581,30.5689],[47.0884,30.5738],[47.0945,30.6018],[47.089,30.6748],[47.0905,30.6972],[47.0967,30.7257],[47.1221,30.8388],[47.1347,31.0469],[47.1261,31.1298],[47.1372,31.1912],[47.1559,31.2162],[47.1763,31.2309],[47.211,31.2449],[47.3497,31.2759],[47.3948,31.2792],[47.5375,31.267],[47.6761,31.2366],[47.6764,31.2365]]]}},{"type":"Feature","properties":{"regionId":"muthanna","iso":"IQ-MU","neName":"Al-Muthannia"},"geometry":{"type":"Polygon","coordinates":[[[45.7131,31.6372],[45.7558,31.6377],[45.7775,31.6439],[45.7858,31.6515],[45.8174,31.6204],[45.823,31.6057],[45.8217,31.6009],[45.8211,31.5869],[45.8226,31.5736],[45.8216,31.5663],[45.8195,31.5614],[45.8155,31.5601],[45.8112,31.561],[45.8012,31.5677],[45.7959,31.5705],[45.7903,31.5724],[45.7846,31.5686],[45.7797,31.5608],[45.7734,31.5392],[45.7737,31.5303],[45.7771,31.5245],[45.7824,31.5227],[45.7881,31.5215],[45.7938,31.515],[45.7991,31.5036],[45.8059,31.473],[45.8072,31.4598],[45.8037,31.4482],[45.7349,31.3743],[45.7239,31.3559],[45.7264,31.3419],[45.7544,31.3376],[45.8095,31.3356],[45.7521,31.2192],[45.7408,31.1871],[45.7432,31.1764],[45.7625,31.1696],[45.7663,31.166],[45.7782,31.1578],[45.7863,31.1546],[45.7923,31.1521],[45.7956,31.1419],[45.7943,31.1244],[45.7885,31.0937],[45.7814,31.0834],[45.7691,31.0818],[45.749,31.0879],[45.7338,31.0864],[45.7261,31.0729],[45.7214,31.0473],[45.7159,31.0289],[45.7118,30.9992],[45.706,30.9773],[45.7198,30.8376],[46.2106,30.7823],[46.3714,30.7335],[46.4631,30.6028],[46.5045,30.5294],[46.5152,30.5164],[46.5283,30.5078],[46.5416,30.5073],[46.5747,30.5141],[46.5913,30.4523],[46.6074,30.3599],[46.6159,30.3316],[46.6287,30.3064],[46.727,30.1824],[46.7357,30.1636],[46.7417,30.1435],[46.7448,30.1179],[46.7446,30.0893],[46.6628,29.7108],[46.6504,29.6097],[46.6495,29.4816],[46.6452,29.4559],[46.6083,29.4],[46.5966,29.3772],[46.5886,29.3511],[46.5669,29.1496],[46.5616,29.1249],[46.5615,29.1242],[46.5324,29.0957],[46.4886,29.0876],[46.4449,29.0794],[46.4273,29.0761],[46.4012,29.0713],[46.3575,29.0631],[46.2521,29.0715],[46.1759,29.0775],[46.0997,29.0836],[46.0236,29.0896],[45.9474,29.0956],[45.8449,29.1038],[45.7424,29.1119],[45.6399,29.12],[45.5374,29.1281],[45.4349,29.1362],[45.3324,29.1444],[45.23,29.1525],[45.1275,29.1606],[45.0478,29.1669],[44.9683,29.1733],[44.8887,29.1795],[44.8089,29.1859],[44.7175,29.1931],[44.7109,29.1953],[44.7046,29.1975],[44.6982,29.1997],[44.6918,29.2018],[44.6149,29.2561],[44.5197,29.3233],[44.4243,29.3905],[44.329,29.4578],[44.2337,29.525],[44.1191,29.6058],[44.0046,29.6866],[43.8901,29.7674],[43.824,29.814],[43.8368,29.8333],[44.0564,30.167],[44.2364,30.6153],[44.272,30.6762],[44.313,30.7224],[44.3287,30.7361],[44.3782,30.7671],[44.4386,30.789],[44.4454,30.7931],[44.4941,30.8586],[44.533,30.898],[44.5794,30.9343],[44.6271,31.0069],[44.6513,31.0549],[44.7269,31.4075],[44.8972,31.3],[44.9783,31.2626],[44.9994,31.3667],[45.0621,31.5133],[45.0932,31.5655],[45.1086,31.6014],[45.1101,31.6164],[45.088,31.6251],[45.0813,31.6351],[45.0767,31.6467],[45.0705,31.6556],[45.0636,31.6591],[45.0459,31.6647],[45.0362,31.6693],[45.0249,31.6792],[45.048,31.6815],[45.2099,31.7146],[45.2201,31.7296],[45.292,31.7276],[45.5361,31.6867],[45.7131,31.6372]]]}},{"type":"Feature","properties":{"regionId":"qadisiyyah","iso":"IQ-QA","neName":"Al-Qadisiyah"},"geometry":{"type":"Polygon","coordinates":[[[45.1984,32.3944],[45.2563,32.3878],[45.2627,32.3719],[45.2878,32.3628],[45.3584,32.3556],[45.3699,32.3407],[45.3919,32.3351],[45.3955,32.3268],[45.3938,32.3174],[45.3806,32.2905],[45.3781,32.2763],[45.3835,32.2613],[45.3985,32.2465],[45.4979,32.1668],[45.5162,32.146],[45.5285,32.1272],[45.5381,32.1148],[45.554,32.106],[45.6171,32.0862],[45.686,32.0689],[45.6891,32.0568],[45.6818,32.0515],[45.6781,32.0469],[45.6786,32.0406],[45.7257,31.9478],[45.719,31.9232],[45.7174,31.9089],[45.7184,31.8883],[45.7583,31.7839],[45.7858,31.6515],[45.7775,31.6439],[45.7558,31.6377],[45.7131,31.6372],[45.5361,31.6867],[45.292,31.7276],[45.2201,31.7296],[45.2099,31.7146],[45.048,31.6815],[45.0249,31.6792],[45.0362,31.6693],[45.0459,31.6647],[45.0636,31.6591],[45.0705,31.6556],[45.0767,31.6467],[45.0813,31.6351],[45.088,31.6251],[45.1101,31.6164],[45.1086,31.6014],[45.0932,31.5655],[45.0621,31.5133],[44.9994,31.3667],[44.9783,31.2626],[44.8972,31.3],[44.7269,31.4075],[44.5346,31.4753],[44.516,31.4856],[44.4509,31.5514],[44.4293,31.5853],[44.4342,31.6087],[44.4564,31.6302],[44.4776,31.6346],[44.505,31.6256],[44.5222,31.617],[44.5417,31.6408],[44.5284,31.7155],[44.529,31.7786],[44.533,31.8111],[44.4995,31.9527],[44.5066,31.9841],[44.5149,32.0083],[44.523,32.0184],[44.5425,32.0251],[44.579,32.0458],[44.6079,32.0551],[44.6131,32.0582],[44.6133,32.0627],[44.6073,32.0692],[44.5985,32.0752],[44.5925,32.0802],[44.5878,32.0864],[44.5841,32.0931],[44.584,32.0992],[44.5866,32.1044],[44.5967,32.1098],[44.6029,32.1109],[44.6076,32.111],[44.6119,32.1152],[44.6152,32.1192],[44.6299,32.1595],[44.6599,32.1513],[44.7152,32.1228],[44.7283,32.1187],[44.7402,32.1188],[44.7497,32.1215],[44.758,32.1254],[44.7647,32.1308],[44.784,32.1508],[44.7899,32.1549],[44.8049,32.1625],[44.8103,32.1663],[44.8146,32.1718],[44.8153,32.1791],[44.8139,32.1883],[44.806,32.1944],[44.8016,32.1986],[44.8,32.2033],[44.8029,32.2102],[44.8087,32.219],[44.8184,32.2279],[44.8257,32.2307],[44.8317,32.2303],[44.8375,32.2261],[44.8489,32.2163],[44.8551,32.2137],[44.8619,32.217],[44.8912,32.2406],[44.9351,32.2691],[44.9994,32.2913],[45.0853,32.34],[45.0922,32.3454],[45.1044,32.3579],[45.1163,32.3655],[45.161,32.3885],[45.1752,32.3931],[45.1837,32.3951],[45.1984,32.3944]]]}},{"type":"Feature","properties":{"regionId":"dhi-qar","iso":"IQ-DQ","neName":"Dhi-Qar"},"geometry":{"type":"Polygon","coordinates":[[[46.8459,31.1391],[46.951,31.1405],[47.1261,31.1298],[47.1347,31.0469],[47.1221,30.8388],[47.0967,30.7257],[47.0905,30.6972],[47.089,30.6748],[47.0945,30.6018],[47.0884,30.5738],[47.0581,30.5689],[46.9194,30.5907],[46.9011,30.5913],[46.5747,30.5141],[46.5416,30.5073],[46.5283,30.5078],[46.5152,30.5164],[46.5045,30.5294],[46.4631,30.6028],[46.3714,30.7335],[46.2106,30.7823],[45.7198,30.8376],[45.706,30.9773],[45.7118,30.9992],[45.7159,31.0289],[45.7214,31.0473],[45.7261,31.0729],[45.7338,31.0864],[45.749,31.0879],[45.7691,31.0818],[45.7814,31.0834],[45.7885,31.0937],[45.7943,31.1244],[45.7956,31.1419],[45.7923,31.1521],[45.7863,31.1546],[45.7782,31.1578],[45.7663,31.166],[45.7625,31.1696],[45.7432,31.1764],[45.7408,31.1871],[45.7521,31.2192],[45.8095,31.3356],[45.7544,31.3376],[45.7264,31.3419],[45.7239,31.3559],[45.7349,31.3743],[45.8037,31.4482],[45.8072,31.4598],[45.8059,31.473],[45.7991,31.5036],[45.7938,31.515],[45.7881,31.5215],[45.7824,31.5227],[45.7771,31.5245],[45.7737,31.5303],[45.7734,31.5392],[45.7797,31.5608],[45.7846,31.5686],[45.7903,31.5724],[45.7959,31.5705],[45.8012,31.5677],[45.8112,31.561],[45.8155,31.5601],[45.8195,31.5614],[45.8216,31.5663],[45.8226,31.5736],[45.8211,31.5869],[45.8217,31.6009],[45.823,31.6057],[45.8174,31.6204],[45.7858,31.6515],[45.7583,31.7839],[45.7184,31.8883],[45.7174,31.9089],[45.719,31.9232],[45.7257,31.9478],[45.826,31.9423],[45.8873,31.9642],[45.8926,31.9641],[45.8973,31.9609],[45.9012,31.9611],[45.9051,31.963],[45.9096,31.9672],[45.9123,31.9683],[45.9149,31.9674],[45.9175,31.9648],[45.9225,31.9617],[45.9273,31.9626],[45.9619,31.9847],[45.9701,31.9869],[45.9789,31.9862],[45.9882,31.9838],[46.0037,31.9813],[46.011,31.9814],[46.0154,31.9834],[46.0191,31.991],[46.0243,31.995],[46.0576,32.0046],[46.3174,32.0054],[46.3397,31.9865],[46.352,31.9728],[46.3537,31.9643],[46.3373,31.9607],[46.3206,31.9522],[46.3109,31.9354],[46.337,31.8879],[46.4144,31.7788],[46.413,31.7553],[46.4096,31.7418],[46.4326,31.6912],[46.4718,31.6535],[46.5028,31.6382],[46.5088,31.6326],[46.5399,31.5898],[46.5564,31.5756],[46.5885,31.5526],[46.5992,31.5416],[46.6065,31.5258],[46.6091,31.5103],[46.6054,31.4901],[46.6,31.4778],[46.5895,31.4596],[46.5883,31.4466],[46.5889,31.4373],[46.605,31.396],[46.694,31.3486],[46.7062,31.3405],[46.7176,31.3307],[46.7303,31.316],[46.7363,31.3059],[46.7395,31.297],[46.7405,31.2881],[46.7401,31.277],[46.7357,31.2415],[46.7356,31.2309],[46.7368,31.2214],[46.739,31.2131],[46.7426,31.2059],[46.7495,31.1981],[46.7928,31.1681],[46.8067,31.1567],[46.8459,31.1391]]]}},{"type":"Feature","properties":{"regionId":"maysan","iso":"IQ-MA","neName":"Maysan"},"geometry":{"type":"Polygon","coordinates":[[[47.0584,32.4945],[47.0586,32.4945],[47.0587,32.4944],[47.0906,32.4746],[47.121,32.461],[47.1526,32.4552],[47.1878,32.4584],[47.2055,32.464],[47.2513,32.4855],[47.2653,32.4847],[47.3219,32.4682],[47.3433,32.4587],[47.3561,32.4462],[47.3673,32.4308],[47.3841,32.4126],[47.4108,32.3953],[47.4164,32.388],[47.418,32.3764],[47.4143,32.3699],[47.4088,32.3643],[47.4,32.3458],[47.3959,32.342],[47.3958,32.337],[47.4025,32.3235],[47.4071,32.3178],[47.4369,32.2937],[47.4416,32.2882],[47.4454,32.2826],[47.463,32.2618],[47.4694,32.2561],[47.4791,32.2521],[47.4845,32.2394],[47.504,32.2267],[47.5092,32.2138],[47.5077,32.1998],[47.5024,32.1901],[47.4964,32.1813],[47.4925,32.1705],[47.4904,32.1565],[47.4913,32.1486],[47.4982,32.1441],[47.5138,32.1403],[47.5267,32.1334],[47.5348,32.1232],[47.5436,32.1146],[47.5587,32.113],[47.5781,32.1062],[47.5802,32.1035],[47.595,32.0854],[47.6178,32.0419],[47.6331,32.0269],[47.6681,32.0124],[47.6779,31.9947],[47.6779,31.9945],[47.6826,31.9769],[47.7184,31.9223],[47.7252,31.9143],[47.7433,31.9043],[47.751,31.8982],[47.7565,31.8892],[47.7617,31.8716],[47.7653,31.8641],[47.7814,31.8489],[47.8208,31.8236],[47.8345,31.8057],[47.8373,31.7845],[47.8313,31.7618],[47.6789,31.4079],[47.6764,31.2365],[47.6761,31.2366],[47.5375,31.267],[47.3948,31.2792],[47.3497,31.2759],[47.211,31.2449],[47.1763,31.2309],[47.1559,31.2162],[47.1372,31.1912],[47.1261,31.1298],[46.951,31.1405],[46.8459,31.1391],[46.8067,31.1567],[46.7928,31.1681],[46.7495,31.1981],[46.7426,31.2059],[46.739,31.2131],[46.7368,31.2214],[46.7356,31.2309],[46.7357,31.2415],[46.7401,31.277],[46.7405,31.2881],[46.7395,31.297],[46.7363,31.3059],[46.7303,31.316],[46.7176,31.3307],[46.7062,31.3405],[46.694,31.3486],[46.605,31.396],[46.5889,31.4373],[46.5883,31.4466],[46.5895,31.4596],[46.6,31.4778],[46.6054,31.4901],[46.6091,31.5103],[46.6065,31.5258],[46.5992,31.5416],[46.5885,31.5526],[46.5564,31.5756],[46.5399,31.5898],[46.5088,31.6326],[46.5028,31.6382],[46.4718,31.6535],[46.4326,31.6912],[46.4096,31.7418],[46.413,31.7553],[46.4144,31.7788],[46.337,31.8879],[46.3109,31.9354],[46.3206,31.9522],[46.3373,31.9607],[46.3537,31.9643],[46.352,31.9728],[46.3397,31.9865],[46.3174,32.0054],[46.4422,32.0094],[46.4821,32.0053],[46.518,31.9895],[46.5557,31.9814],[46.5768,31.9836],[46.6037,32.1337],[46.5917,32.1522],[46.5722,32.1772],[46.4502,32.2219],[46.4317,32.2345],[46.4286,32.2495],[46.4342,32.2675],[46.4763,32.3699],[46.4777,32.3785],[46.4738,32.3865],[46.4691,32.3925],[46.4528,32.4038],[46.444,32.4116],[46.4451,32.4205],[46.4513,32.4319],[46.4651,32.4503],[46.4682,32.4566],[46.4715,32.471],[46.4749,32.4811],[46.4762,32.4919],[46.4749,32.5527],[46.4811,32.6006],[46.5461,32.767],[46.5536,32.7766],[46.5758,32.7897],[46.5851,32.7995],[46.6006,32.8225],[46.6006,32.8225],[46.6044,32.8207],[46.6504,32.7894],[46.7159,32.756],[46.7573,32.7162],[47.0584,32.4945]]]}},{"type":"Feature","properties":{"regionId":"wasit","iso":"IQ-WA","neName":"Wasit"},"geometry":{"type":"Polygon","coordinates":[[[46.0892,33.1157],[46.0724,33.1168],[46.0504,33.1151],[46.0303,33.1057],[46.0293,33.0935],[46.0433,33.0835],[46.0872,33.0792],[46.106,33.0725],[46.1204,33.0617],[46.1262,33.048],[46.1195,33.031],[46.1047,33.0181],[46.088,33.0067],[46.0757,32.9945],[46.0757,32.9943],[46.097,32.9543],[46.1556,32.9484],[46.2734,32.9595],[46.3796,32.9318],[46.4793,32.8918],[46.5073,32.868],[46.6006,32.8225],[46.6006,32.8225],[46.5851,32.7995],[46.5758,32.7897],[46.5536,32.7766],[46.5461,32.767],[46.4811,32.6006],[46.4749,32.5527],[46.4762,32.4919],[46.4749,32.4811],[46.4715,32.471],[46.4682,32.4566],[46.4651,32.4503],[46.4513,32.4319],[46.4451,32.4205],[46.444,32.4116],[46.4528,32.4038],[46.4691,32.3925],[46.4738,32.3865],[46.4777,32.3785],[46.4763,32.3699],[46.4342,32.2675],[46.4286,32.2495],[46.4317,32.2345],[46.4502,32.2219],[46.5722,32.1772],[46.5917,32.1522],[46.6037,32.1337],[46.5768,31.9836],[46.5557,31.9814],[46.518,31.9895],[46.4821,32.0053],[46.4422,32.0094],[46.3174,32.0054],[46.0576,32.0046],[46.0243,31.995],[46.0191,31.991],[46.0154,31.9834],[46.011,31.9814],[46.0037,31.9813],[45.9882,31.9838],[45.9789,31.9862],[45.9701,31.9869],[45.9619,31.9847],[45.9273,31.9626],[45.9225,31.9617],[45.9175,31.9648],[45.9149,31.9674],[45.9123,31.9683],[45.9096,31.9672],[45.9051,31.963],[45.9012,31.9611],[45.8973,31.9609],[45.8926,31.9641],[45.8873,31.9642],[45.826,31.9423],[45.7257,31.9478],[45.6786,32.0406],[45.6781,32.0469],[45.6818,32.0515],[45.6891,32.0568],[45.686,32.0689],[45.6171,32.0862],[45.554,32.106],[45.5381,32.1148],[45.5285,32.1272],[45.5162,32.146],[45.4979,32.1668],[45.3985,32.2465],[45.3835,32.2613],[45.3781,32.2763],[45.3806,32.2905],[45.3938,32.3174],[45.3955,32.3268],[45.3919,32.3351],[45.3699,32.3407],[45.3584,32.3556],[45.2878,32.3628],[45.2627,32.3719],[45.2563,32.3878],[45.1984,32.3944],[45.1968,32.4152],[45.194,32.4466],[45.181,32.4468],[45.1213,32.449],[45.1046,32.4531],[45.0884,32.4626],[45.0692,32.4789],[45.0518,32.4976],[45.0127,32.572],[44.9699,32.6919],[44.9637,32.7027],[44.9502,32.7153],[44.9359,32.7249],[44.9102,32.7371],[44.8777,32.7488],[44.8724,32.7564],[44.8638,32.7588],[44.8273,32.7617],[44.7767,32.7753],[44.7132,32.8059],[44.7063,32.8073],[44.5648,32.8157],[44.5587,32.8177],[44.5539,32.8208],[44.547,32.8263],[44.5404,32.8421],[44.5343,32.8668],[44.5309,32.9681],[44.5233,32.9979],[44.5401,33.006],[44.5623,33.0003],[44.5651,33.0014],[44.5694,33.0041],[44.5732,33.0102],[44.5781,33.02],[44.588,33.0339],[44.5979,33.0599],[44.6051,33.0742],[44.6122,33.0772],[44.6183,33.0677],[44.627,33.0482],[44.6322,33.0391],[44.6387,33.0318],[44.6464,33.0258],[44.6556,33.0205],[44.6659,33.0161],[44.6772,33.0131],[44.6886,33.0127],[44.6991,33.0161],[44.7105,33.0241],[44.715,33.0256],[44.7092,33.0407],[44.706,33.0454],[44.7005,33.0564],[44.7098,33.0683],[44.7275,33.083],[44.7709,33.1112],[44.793,33.1385],[44.8152,33.1613],[44.8347,33.1743],[44.8647,33.173],[44.9799,33.1494],[45.0151,33.1471],[45.1121,33.1562],[45.4256,33.0804],[45.4837,33.066],[45.4918,33.0688],[45.5033,33.0742],[45.5158,33.0879],[45.5319,33.1023],[45.5703,33.1297],[45.5772,33.1358],[45.6001,33.1648],[45.6263,33.1916],[45.6396,33.2081],[45.6489,33.2291],[45.653,33.243],[45.6595,33.2539],[45.6691,33.2656],[45.704,33.3007],[45.7152,33.315],[45.7209,33.3202],[45.7254,33.322],[45.7295,33.3211],[45.7337,33.3195],[45.7375,33.3187],[45.7418,33.3191],[45.757,33.325],[45.7688,33.3312],[45.7772,33.3378],[45.7878,33.3487],[45.8346,33.3776],[45.8426,33.3807],[45.8486,33.3825],[45.8541,33.3827],[45.8626,33.3846],[45.8745,33.3886],[45.8981,33.4005],[45.9089,33.4076],[45.9161,33.4152],[45.9281,33.451],[45.9318,33.4574],[45.9477,33.4801],[45.9645,33.496],[45.9645,33.496],[45.9682,33.4942],[45.9714,33.4928],[45.9744,33.4908],[46.008,33.4557],[46.0194,33.4384],[46.0275,33.4195],[46.0305,33.3992],[46.0311,33.3825],[46.0362,33.3679],[46.0697,33.3409],[46.1095,33.2937],[46.1413,33.2721],[46.1553,33.2602],[46.1642,33.2433],[46.1644,33.2331],[46.1584,33.2139],[46.1577,33.2057],[46.1621,33.1964],[46.1737,33.1902],[46.1743,33.1812],[46.1672,33.1683],[46.1534,33.1543],[46.1265,33.1318],[46.1054,33.1184],[46.0892,33.1157]]]}},{"type":"Feature","properties":{"regionId":"diyala","iso":"IQ-DI","neName":"Diyala"},"geometry":{"type":"Polygon","coordinates":[[[45.7962,34.903],[45.7783,34.9109],[45.7551,34.91],[45.7485,34.8907],[45.7505,34.8654],[45.7454,34.841],[45.7177,34.8251],[45.6892,34.8226],[45.6766,34.8183],[45.6668,34.8069],[45.6636,34.7949],[45.6659,34.7747],[45.6628,34.7633],[45.635,34.737],[45.6274,34.7208],[45.6423,34.7069],[45.6505,34.703],[45.6595,34.6972],[45.6669,34.69],[45.6704,34.6818],[45.6735,34.6712],[45.6784,34.6651],[45.6835,34.6602],[45.6876,34.6532],[45.6908,34.6343],[45.6912,34.6155],[45.6945,34.5986],[45.7056,34.5856],[45.7086,34.5791],[45.7083,34.5684],[45.7056,34.5577],[45.7015,34.5513],[45.6956,34.5502],[45.6736,34.5567],[45.6048,34.5611],[45.5739,34.5673],[45.5396,34.5822],[45.5007,34.5917],[45.4965,34.5642],[45.5048,34.5238],[45.5035,34.4942],[45.4987,34.4862],[45.493,34.479],[45.4865,34.4727],[45.4793,34.4673],[45.4268,34.4575],[45.4171,34.4444],[45.448,34.3621],[45.4608,34.3405],[45.4793,34.3291],[45.4992,34.3424],[45.5215,34.3425],[45.5422,34.3316],[45.5576,34.312],[45.563,34.2893],[45.561,34.2646],[45.5477,34.2165],[45.5427,34.2075],[45.5287,34.1886],[45.5267,34.1793],[45.5315,34.1679],[45.5388,34.1592],[45.5445,34.1506],[45.5445,34.1395],[45.5344,34.1282],[45.4939,34.1007],[45.4793,34.0876],[45.4549,34.0699],[45.4436,34.0477],[45.4352,34.0221],[45.4199,33.9944],[45.4199,33.9943],[45.4197,33.9943],[45.4115,33.9872],[45.4018,33.9816],[45.3804,33.9736],[45.401,33.9495],[45.4237,33.9388],[45.4497,33.9374],[45.4793,33.9412],[45.4818,33.9409],[45.4839,33.94],[45.4858,33.9387],[45.5748,33.8039],[45.5882,33.7915],[45.6036,33.7807],[45.6167,33.7687],[45.6239,33.7521],[45.6282,33.7318],[45.6351,33.7142],[45.6452,33.6979],[45.6588,33.6817],[45.674,33.669],[45.7211,33.6408],[45.7246,33.633],[45.728,33.6256],[45.7277,33.5901],[45.7346,33.5831],[45.752,33.5868],[45.7685,33.5959],[45.7975,33.6193],[45.8158,33.6258],[45.8644,33.6264],[45.886,33.6309],[45.882,33.6002],[45.8997,33.5852],[45.9209,33.573],[45.9279,33.5509],[45.9156,33.5358],[45.8682,33.5116],[45.8526,33.4944],[45.8697,33.4821],[45.8994,33.4763],[45.9297,33.4795],[45.9482,33.4943],[45.9531,33.4966],[45.9582,33.4974],[45.9633,33.4966],[45.9645,33.496],[45.9645,33.496],[45.9477,33.4801],[45.9318,33.4574],[45.9281,33.451],[45.9161,33.4152],[45.9089,33.4076],[45.8981,33.4005],[45.8745,33.3886],[45.8626,33.3846],[45.8541,33.3827],[45.8486,33.3825],[45.8426,33.3807],[45.8346,33.3776],[45.7878,33.3487],[45.7772,33.3378],[45.7688,33.3312],[45.757,33.325],[45.7418,33.3191],[45.7375,33.3187],[45.7337,33.3195],[45.7295,33.3211],[45.7254,33.322],[45.7209,33.3202],[45.7152,33.315],[45.704,33.3007],[45.6691,33.2656],[45.6595,33.2539],[45.653,33.243],[45.6489,33.2291],[45.6396,33.2081],[45.6263,33.1916],[45.6001,33.1648],[45.5772,33.1358],[45.5703,33.1297],[45.5319,33.1023],[45.5158,33.0879],[45.5033,33.0742],[45.4918,33.0688],[45.4837,33.066],[45.4256,33.0804],[45.1121,33.1562],[45.0151,33.1471],[44.9799,33.1494],[44.8647,33.173],[44.8347,33.1743],[44.8152,33.1613],[44.793,33.1385],[44.7709,33.1112],[44.7275,33.083],[44.7098,33.0683],[44.7005,33.0564],[44.706,33.0454],[44.7092,33.0407],[44.715,33.0256],[44.7105,33.0241],[44.6991,33.0161],[44.6886,33.0127],[44.6772,33.0131],[44.6659,33.0161],[44.6556,33.0205],[44.6464,33.0258],[44.6387,33.0318],[44.6322,33.0391],[44.627,33.0482],[44.6183,33.0677],[44.6122,33.0772],[44.6051,33.0742],[44.5979,33.0599],[44.588,33.0339],[44.5781,33.02],[44.5732,33.0102],[44.5694,33.0041],[44.5651,33.0014],[44.5623,33.0003],[44.5401,33.006],[44.5459,33.0199],[44.5464,33.0589],[44.5426,33.08],[44.5348,33.1046],[44.5169,33.143],[44.5044,33.1642],[44.5048,33.176],[44.5064,33.2192],[44.516,33.2311],[44.5191,33.2336],[44.5253,33.2399],[44.5265,33.2438],[44.5261,33.248],[44.5222,33.2551],[44.5199,33.2634],[44.5268,33.2794],[44.5268,33.2704],[44.5243,33.2673],[44.5247,33.2645],[44.5283,33.2643],[44.533,33.2668],[44.5361,33.2734],[44.5385,33.2808],[44.5374,33.311],[44.536,33.3407],[44.5411,33.3504],[44.542,33.3624],[44.5426,33.3648],[44.5433,33.3663],[44.5426,33.3692],[44.5373,33.3832],[44.5348,33.3923],[44.5333,33.4036],[44.5292,33.4081],[44.5258,33.4109],[44.4944,33.3908],[44.4571,33.4184],[44.4571,33.4184],[44.4371,33.4275],[44.4272,33.4291],[44.3556,33.4316],[44.3498,33.4325],[44.343,33.4256],[44.3298,33.3904],[44.2778,33.3786],[44.2748,33.3779],[44.2448,33.4333],[44.2981,33.4978],[44.313,33.5128],[44.3363,33.5309],[44.3538,33.5416],[44.3931,33.5709],[44.4015,33.5968],[44.4046,33.6216],[44.3931,33.6446],[44.4079,33.6987],[44.4119,33.706],[44.4258,33.7246],[44.426,33.729],[44.4235,33.7331],[44.4036,33.7498],[44.3969,33.757],[44.3917,33.7654],[44.3893,33.7745],[44.3894,33.7836],[44.3913,33.7927],[44.4099,33.8355],[44.4441,33.8801],[44.45,33.8976],[44.451,33.9163],[44.4478,33.9354],[44.44,33.951],[44.4281,33.9635],[44.3818,33.9983],[44.3728,34.0015],[44.3667,34.0037],[44.3401,34.007],[44.3127,34.0043],[44.3046,34.0024],[44.2975,34.0017],[44.2927,34.0026],[44.2896,34.0051],[44.2894,34.0134],[44.29,34.0183],[44.3012,34.0316],[44.3039,34.044],[44.3111,34.0605],[44.3098,34.0654],[44.3045,34.0723],[44.3062,34.0756],[44.3276,34.088],[44.3315,34.0912],[44.3339,34.0976],[44.334,34.1017],[44.3326,34.1052],[44.3253,34.1159],[44.324,34.1197],[44.3259,34.1232],[44.3299,34.1261],[44.3382,34.1277],[44.35,34.128],[44.3522,34.1293],[44.3534,34.132],[44.3525,34.1557],[44.3504,34.1594],[44.3482,34.162],[44.3481,34.1645],[44.3516,34.1666],[44.3608,34.1683],[44.3729,34.1678],[44.3773,34.1692],[44.3814,34.1723],[44.3843,34.1786],[44.3883,34.1842],[44.3917,34.1878],[44.3976,34.1886],[44.3995,34.1864],[44.3998,34.1835],[44.3973,34.1788],[44.3976,34.1773],[44.3995,34.1762],[44.4027,34.176],[44.4058,34.1775],[44.408,34.1805],[44.4104,34.1886],[44.4145,34.1959],[44.4353,34.2214],[44.4392,34.2236],[44.4481,34.2263],[44.4595,34.2267],[44.4631,34.2272],[44.4665,34.2289],[44.4704,34.2315],[44.4745,34.2334],[44.4776,34.2329],[44.4832,34.2277],[44.4863,34.2257],[44.4891,34.2266],[44.4912,34.2308],[44.491,34.249],[44.4928,34.2546],[44.5004,34.2587],[44.5053,34.2602],[44.5088,34.2627],[44.5097,34.2666],[44.507,34.2865],[44.5206,34.2939],[44.509,34.3059],[44.5019,34.3092],[44.4943,34.3143],[44.4851,34.323],[44.4795,34.3297],[44.4767,34.3354],[44.4767,34.3398],[44.4844,34.3499],[44.4944,34.3677],[44.5011,34.3864],[44.5016,34.3944],[44.4982,34.4043],[44.4958,34.4092],[44.4947,34.4129],[44.5014,34.4187],[44.5038,34.422],[44.5072,34.4313],[44.509,34.4347],[44.5097,34.4374],[44.5067,34.4392],[44.5036,34.4389],[44.498,34.436],[44.4947,34.4354],[44.4909,34.436],[44.4888,34.4378],[44.4888,34.4407],[44.4934,34.4453],[44.4956,34.4481],[44.4961,34.4504],[44.4928,34.4521],[44.4903,34.4514],[44.4879,34.4498],[44.486,34.4489],[44.4853,34.4505],[44.486,34.4542],[44.4906,34.461],[44.4946,34.4637],[44.4992,34.4645],[44.5032,34.4648],[44.5128,34.4673],[44.5162,34.4699],[44.5172,34.4737],[44.5128,34.4816],[44.509,34.4848],[44.5053,34.4861],[44.5026,34.4861],[44.5014,34.4871],[44.5026,34.4898],[44.5146,34.4987],[44.5171,34.5063],[44.5175,34.5119],[44.5023,34.5443],[44.5029,34.5536],[44.5039,34.5575],[44.506,34.563],[44.5177,34.5755],[44.5219,34.5773],[44.5307,34.5732],[44.5506,34.5663],[44.566,34.5633],[44.5748,34.5599],[44.5856,34.554],[44.6221,34.5267],[44.6274,34.524],[44.6304,34.5244],[44.6354,34.5364],[44.642,34.5464],[44.653,34.5572],[44.6701,34.5693],[44.6865,34.5786],[44.7008,34.59],[44.7134,34.6042],[44.7291,34.6318],[44.7306,34.6464],[44.7273,34.6582],[44.7226,34.6641],[44.7183,34.6705],[44.7163,34.6766],[44.7163,34.6825],[44.721,34.689],[44.7306,34.6962],[44.7511,34.7058],[44.7793,34.7127],[44.7916,34.717],[44.8059,34.7266],[44.8252,34.743],[44.8386,34.7615],[44.8428,34.7725],[44.842,34.7808],[44.8409,34.7873],[44.8415,34.7939],[44.848,34.8017],[44.8597,34.8094],[44.8858,34.8177],[44.9186,34.8317],[44.966,34.8675],[45.0192,34.8387],[45.04,34.8216],[45.0496,34.811],[45.056,34.8069],[45.0628,34.8057],[45.0686,34.8071],[45.092,34.8185],[45.1008,34.8205],[45.1123,34.8215],[45.1336,34.8194],[45.1461,34.816],[45.156,34.8118],[45.1696,34.8023],[45.1773,34.7943],[45.1857,34.7836],[45.1891,34.7746],[45.1919,34.7392],[45.1961,34.7167],[45.1962,34.7104],[45.1956,34.7056],[45.1958,34.7009],[45.1968,34.694],[45.2023,34.6713],[45.2136,34.6458],[45.2136,34.6415],[45.2121,34.6376],[45.2076,34.6324],[45.1938,34.6196],[45.191,34.6152],[45.1896,34.6105],[45.1899,34.6046],[45.1912,34.5986],[45.1972,34.5837],[45.198,34.5787],[45.1978,34.5732],[45.1962,34.5671],[45.1934,34.5604],[45.1862,34.5495],[45.1863,34.5456],[45.1887,34.5412],[45.1916,34.5392],[45.1993,34.5371],[45.203,34.5367],[45.2061,34.5367],[45.2101,34.5361],[45.2127,34.533],[45.2145,34.5283],[45.2173,34.5128],[45.2501,34.5289],[45.359,34.637],[45.3724,34.6465],[45.3798,34.6461],[45.3835,34.6463],[45.3935,34.6482],[45.3997,34.6483],[45.4085,34.65],[45.4188,34.6534],[45.4374,34.662],[45.4445,34.6669],[45.4494,34.672],[45.4503,34.6747],[45.4506,34.6776],[45.4539,34.6869],[45.4654,34.7032],[45.4679,34.708],[45.4704,34.7155],[45.471,34.7184],[45.4703,34.7211],[45.4694,34.7237],[45.4691,34.7271],[45.4692,34.7308],[45.4703,34.7349],[45.4704,34.7379],[45.4726,34.7434],[45.4762,34.7507],[45.4872,34.7668],[45.5002,34.7951],[45.5049,34.8002],[45.5097,34.8035],[45.5156,34.8058],[45.5178,34.809],[45.5192,34.8131],[45.5276,34.8315],[45.531,34.8432],[45.5385,34.8584],[45.5484,34.8673],[45.5527,34.8735],[45.5547,34.8784],[45.5555,34.8837],[45.5581,34.8858],[45.5612,34.8861],[45.5645,34.8855],[45.5675,34.8857],[45.5932,34.905],[45.6014,34.9141],[45.6244,34.9444],[45.6297,34.9536],[45.6323,34.96],[45.6323,34.9626],[45.6325,34.9654],[45.6322,34.9676],[45.6306,34.9694],[45.6276,34.9706],[45.6239,34.9713],[45.6144,34.9719],[45.6115,34.9726],[45.6093,34.9785],[45.6192,34.9856],[45.6226,35],[45.6266,35.0041],[45.6351,35.0085],[45.6394,35.0159],[45.6406,35.0191],[45.639,35.0208],[45.6368,35.0203],[45.6335,35.0192],[45.6307,35.0197],[45.6282,35.022],[45.6275,35.0299],[45.6301,35.0353],[45.6362,35.0443],[45.64,35.0475],[45.6433,35.0486],[45.6456,35.0468],[45.6464,35.0446],[45.6462,35.0417],[45.6464,35.0397],[45.648,35.0391],[45.6505,35.0401],[45.6534,35.0423],[45.6562,35.0438],[45.6642,35.0469],[45.6669,35.0507],[45.671,35.0588],[45.6762,35.0653],[45.687,35.0756],[45.6923,35.0819],[45.6961,35.087],[45.6969,35.0937],[45.6982,35.0989],[45.7071,35.1068],[45.713,35.1099],[45.7195,35.11],[45.7261,35.1066],[45.7338,35.1012],[45.7384,35.0973],[45.744,35.09],[45.8124,35.0304],[45.8232,35.0161],[45.8201,35.0144],[45.8161,35.0132],[45.8117,35.0123],[45.8067,35.0123],[45.8028,35.0129],[45.7984,35.0143],[45.7943,35.0147],[45.7867,35.0141],[45.7839,35.0145],[45.7815,35.0128],[45.7803,35.006],[45.7898,34.9142],[45.7962,34.9031],[45.7962,34.903]]]}},{"type":"Feature","properties":{"regionId":"anbar","iso":"IQ-AN","neName":"Al-Anbar"},"geometry":{"type":"Polygon","coordinates":[[[42.0494,34.9608],[42.1899,34.9759],[42.208,34.9728],[42.243,34.9592],[42.2733,34.9484],[42.4913,34.9727],[42.4984,34.9587],[42.4999,34.7401],[42.5398,34.5953],[42.7339,34.4635],[42.7773,34.443],[42.8092,34.4394],[42.9288,34.4959],[42.9477,34.4103],[42.9523,34.3481],[42.9602,34.3182],[42.9857,34.2876],[43.0009,34.2342],[43.0108,34.1814],[43.0632,34.0756],[43.1319,33.9995],[43.2922,33.8653],[43.4296,33.7653],[43.4825,33.7488],[43.5899,33.7338],[43.7128,33.6927],[43.8035,33.6676],[43.9712,33.6711],[44.0015,33.6635],[44.0363,33.637],[44.0519,33.6227],[44.0703,33.5942],[44.1016,33.5287],[44.1235,33.4971],[44.1335,33.4879],[44.1,33.466],[44.1372,33.4567],[44.1711,33.437],[44.2448,33.4333],[44.2748,33.3779],[44.2778,33.3786],[44.2792,33.3741],[44.2793,33.369],[44.2698,33.3495],[44.2382,33.3211],[44.2263,33.3014],[44.2222,33.2822],[44.2224,33.2612],[44.2272,33.2408],[44.2371,33.2236],[44.2488,33.2139],[44.2756,33.1998],[44.2873,33.1892],[44.2574,33.154],[44.2392,33.1389],[44.2181,33.1338],[44.1962,33.1395],[44.1322,33.1712],[44.1073,33.1775],[44.0832,33.1804],[43.9881,33.1809],[43.8996,33.2006],[43.8542,33.2056],[43.8203,33.2017],[43.8254,33.1806],[43.8387,33.1666],[43.888,33.1563],[43.9853,33.1151],[44.0157,33.0894],[44.0397,33.0301],[44.0575,32.9551],[44.0699,32.9282],[44.0973,32.9019],[44.1409,32.8763],[44.1296,32.7812],[43.9582,32.8258],[43.8437,32.8257],[43.759,32.8168],[43.6797,32.7841],[43.4927,32.6446],[43.4656,32.6296],[43.4546,32.627],[43.4333,32.6245],[43.3109,32.6098],[43.264,32.5948],[43.2107,32.571],[43.2177,32.5407],[43.2418,32.5101],[43.4774,32.3082],[43.6423,32.2034],[43.6906,32.1685],[43.7958,32.0834],[43.7948,32.0637],[43.7895,32.0338],[43.7718,32.0156],[43.7547,32.0017],[43.6617,31.9578],[43.6361,31.9403],[43.6228,31.9332],[43.6067,31.9282],[43.5429,31.9197],[43.5311,31.9154],[43.5014,31.8987],[43.4936,31.8971],[43.4727,31.8956],[43.4565,31.889],[43.438,31.877],[43.4092,31.8503],[43.2535,31.6535],[43.2393,31.6315],[43.238,31.5996],[43.2324,31.5716],[43.2177,31.5346],[43.1115,31.3399],[43.1022,31.3157],[43.0994,31.2984],[43.0994,31.2852],[43.1013,31.2767],[43.105,31.2695],[43.1058,31.2547],[43.1016,31.2333],[43.0622,31.1442],[43.0589,31.1317],[43.0521,31.0828],[43.0455,31.0618],[43.0381,31.048],[42.9818,30.9796],[42.9475,30.929],[42.9399,30.914],[42.9365,30.9042],[42.9242,30.8159],[42.9115,30.7809],[42.8818,30.7192],[42.8168,30.6149],[42.7909,30.5612],[42.7834,30.551],[42.7639,30.5656],[42.6692,30.6367],[42.5745,30.7076],[42.4797,30.7786],[42.3952,30.8416],[42.3107,30.9045],[42.2263,30.9675],[42.1416,31.0304],[42.0754,31.0799],[41.9862,31.1253],[41.8986,31.17],[41.8107,31.2147],[41.7231,31.2594],[41.6354,31.304],[41.5476,31.3487],[41.4598,31.3934],[41.3722,31.4381],[41.2845,31.4828],[41.1967,31.5276],[41.109,31.5723],[41.0213,31.6169],[40.9336,31.6616],[40.8459,31.7063],[40.7582,31.7511],[40.6703,31.7957],[40.5827,31.8404],[40.4798,31.8928],[40.4241,31.9205],[40.3703,31.9385],[40.0293,31.9944],[40.0291,31.9944],[40.029,31.9945],[40.0288,31.9945],[39.9486,32.0061],[39.751,32.0349],[39.5533,32.0637],[39.3556,32.0926],[39.1577,32.1213],[39.155,32.1206],[39.1522,32.1197],[39.1493,32.1189],[39.1464,32.1181],[39.1462,32.1258],[39.2665,32.2129],[39.292,32.2445],[39.2711,32.312],[39.2563,32.3427],[39.2358,32.3529],[39.0463,32.3085],[39.0362,32.3134],[39.0288,32.3283],[38.98,32.4721],[38.9786,32.4737],[38.9782,32.475],[38.9786,32.4757],[38.98,32.4761],[39.0572,32.4966],[38.99,32.7056],[38.9428,32.8523],[38.8972,32.9943],[38.8626,33.1007],[38.821,33.229],[38.7745,33.3717],[38.8851,33.4271],[38.9957,33.4825],[39.1063,33.5379],[39.2169,33.5933],[39.3274,33.6487],[39.438,33.7041],[39.5486,33.7595],[39.6592,33.8148],[39.7697,33.8702],[39.8804,33.9256],[39.9909,33.981],[40.1015,34.0364],[40.1731,34.0723],[40.212,34.0918],[40.3226,34.1472],[40.4332,34.2025],[40.5438,34.258],[40.6905,34.3315],[40.936,34.3861],[40.9653,34.4019],[40.988,34.4285],[41.024,34.4942],[41.024,34.4943],[41.1957,34.7685],[41.2042,34.7931],[41.2065,34.8193],[41.198,34.994],[41.1923,35.1589],[41.2137,35.1584],[41.3422,35.1485],[41.5112,35.1087],[41.5784,35.0998],[41.8522,35.0068],[41.9842,34.9643],[42.0494,34.9608]]]}},{"type":"Feature","properties":{"regionId":"babil","iso":"IQ-BB","neName":"Babil"},"geometry":{"type":"Polygon","coordinates":[[[44.2181,33.1338],[44.2392,33.1389],[44.2574,33.154],[44.2873,33.1892],[44.3004,33.1908],[44.3132,33.1891],[44.3388,33.1831],[44.5048,33.176],[44.5048,33.176],[44.5044,33.1642],[44.5169,33.143],[44.5348,33.1046],[44.5426,33.08],[44.5464,33.0589],[44.5459,33.0199],[44.5401,33.006],[44.5233,32.9979],[44.5309,32.9681],[44.5343,32.8668],[44.5404,32.8421],[44.547,32.8263],[44.5539,32.8208],[44.5587,32.8177],[44.5648,32.8157],[44.7063,32.8073],[44.7132,32.8059],[44.7767,32.7753],[44.8273,32.7617],[44.8638,32.7588],[44.8724,32.7564],[44.8777,32.7488],[44.9102,32.7371],[44.9359,32.7249],[44.9502,32.7153],[44.9637,32.7027],[44.9699,32.6919],[45.0127,32.572],[45.0518,32.4976],[45.0692,32.4789],[45.0884,32.4626],[45.1046,32.4531],[45.1213,32.449],[45.181,32.4468],[45.194,32.4466],[45.1968,32.4152],[45.1984,32.3944],[45.1837,32.3951],[45.1752,32.3931],[45.161,32.3885],[45.1163,32.3655],[45.1044,32.3579],[45.0922,32.3454],[45.0853,32.34],[44.9994,32.2913],[44.9351,32.2691],[44.8912,32.2406],[44.8619,32.217],[44.8551,32.2137],[44.8489,32.2163],[44.8375,32.2261],[44.8317,32.2303],[44.8257,32.2307],[44.8184,32.2279],[44.8087,32.219],[44.8029,32.2102],[44.8,32.2033],[44.8016,32.1986],[44.806,32.1944],[44.8139,32.1883],[44.8153,32.1791],[44.8146,32.1718],[44.8103,32.1663],[44.8049,32.1625],[44.7899,32.1549],[44.784,32.1508],[44.7647,32.1308],[44.758,32.1254],[44.7497,32.1215],[44.7402,32.1188],[44.7283,32.1187],[44.7152,32.1228],[44.6599,32.1513],[44.6299,32.1595],[44.5791,32.1735],[44.5494,32.188],[44.527,32.204],[44.4997,32.2163],[44.4505,32.1864],[44.4428,32.1871],[44.4345,32.1857],[44.43,32.1859],[44.4092,32.1739],[44.3737,32.145],[44.3585,32.1622],[44.3535,32.1708],[44.3461,32.1805],[44.3395,32.187],[44.3206,32.2127],[44.3127,32.2313],[44.3111,32.2422],[44.3185,32.2522],[44.3426,32.2638],[44.3467,32.2809],[44.3405,32.2862],[44.3337,32.2958],[44.3195,32.3437],[44.3163,32.3545],[44.2955,32.3892],[44.2881,32.4101],[44.293,32.4265],[44.3025,32.4464],[44.2955,32.4665],[44.2392,32.5363],[44.2227,32.5702],[44.2204,32.6076],[44.2557,32.7161],[44.265,32.7244],[44.2644,32.7358],[44.2641,32.7417],[44.2601,32.7496],[44.2358,32.7704],[44.229,32.7747],[44.2229,32.7768],[44.2182,32.7766],[44.2129,32.7747],[44.2022,32.7697],[44.1975,32.7691],[44.1923,32.7697],[44.1573,32.7777],[44.1296,32.7812],[44.1409,32.8763],[44.0973,32.9019],[44.0699,32.9282],[44.0575,32.9551],[44.0397,33.0301],[44.0157,33.0894],[43.9853,33.1151],[43.888,33.1563],[43.8387,33.1666],[43.8254,33.1806],[43.8203,33.2017],[43.8542,33.2056],[43.8996,33.2006],[43.9881,33.1809],[44.0832,33.1804],[44.1073,33.1775],[44.1322,33.1712],[44.1962,33.1395],[44.2181,33.1338]]]}}]}